{
  "type": "FeatureCollection",
  "features": [
    {
      "type": "Feature",
      "properties": {
        "norad_id": 36200,
        "name": "FENGYUN 1C DEB",
        "group": "fengyun-1c-debris",
        "lat": 44.80132701196126,
        "lon": -109.37996530020192,
        "alt_km": 707.5089965783873,
        "timestamp": "2025-12-13T03:42:11.560974+00:00",
        "meta_object_name": "FENGYUN 1C DEB",
        "meta_object_id": "1999-025DTZ",
        "meta_epoch": "2025-12-07T03:51:08.362944",
        "meta_mean_motion": 14.58359228,
        "meta_eccentricity": 0.00334809,
        "meta_inclination": 99.3875,
        "meta_ra_of_asc_node": 54.4014,
        "meta_arg_of_pericenter": 25.778,
        "meta_mean_anomaly": 334.5075,
        "meta_ephemeris_type": 0,
        "meta_classification_type": "U",
        "meta_norad_cat_id": 36200,
        "meta_element_set_no": 999,
        "meta_rev_at_epoch": 73279,
        "meta_bstar": 0.0062871133,
        "meta_mean_motion_dot": 0.00029404,
        "meta_mean_motion_ddot": 0,
        "tle_line1": "1 36200U 99025DTZ 25341.16051346  .00029404  00000+0  62871-2 0  9991",
        "tle_line2": "2 36200  99.3875  54.4014 0033480  25.7780 334.5075 14.58359228732791"
      },
      "geometry": {
        "type": "Point",
        "coordinates": [
          -109.37996530020192,
          44.80132701196126
        ]
      }
    },
    {
      "type": "Feature",
      "properties": {
        "norad_id": 36203,
        "name": "FENGYUN 1C DEB",
        "group": "fengyun-1c-debris",
        "lat": 45.379244025636325,
        "lon": 120.32598616758307,
        "alt_km": 573.6428230232086,
        "timestamp": "2025-12-13T03:42:11.560984+00:00",
        "meta_object_name": "FENGYUN 1C DEB",
        "meta_object_id": "1999-025DUC",
        "meta_epoch": "2025-12-08T14:16:01.371648",
        "meta_mean_motion": 14.78297245,
        "meta_eccentricity": 0.0083233,
        "meta_inclination": 99.0964,
        "meta_ra_of_asc_node": 285.836,
        "meta_arg_of_pericenter": 161.4127,
        "meta_mean_anomaly": 199.0151,
        "meta_ephemeris_type": 0,
        "meta_classification_type": "U",
        "meta_norad_cat_id": 36203,
        "meta_element_set_no": 999,
        "meta_rev_at_epoch": 63368,
        "meta_bstar": 0.0016876,
        "meta_mean_motion_dot": 0.00012947,
        "meta_mean_motion_ddot": 0,
        "tle_line1": "1 36203U 99025DUC 25342.59446032  .00012947  00000+0  16876-2 0  9990",
        "tle_line2": "2 36203  99.0964 285.8360 0083233 161.4127 199.0151 14.78297245633687"
      },
      "geometry": {
        "type": "Point",
        "coordinates": [
          120.32598616758307,
          45.379244025636325
        ]
      }
    },
    {
      "type": "Feature",
      "properties": {
        "norad_id": 36204,
        "name": "FENGYUN 1C DEB",
        "group": "fengyun-1c-debris",
        "lat": -20.74561211081622,
        "lon": -99.29197866494488,
        "alt_km": 770.5667136859893,
        "timestamp": "2025-12-13T03:42:11.560993+00:00",
        "meta_object_name": "FENGYUN 1C DEB",
        "meta_object_id": "1999-025DUD",
        "meta_epoch": "2025-12-09T13:24:01.015776",
        "meta_mean_motion": 14.34542102,
        "meta_eccentricity": 0.002004,
        "meta_inclination": 99.2908,
        "meta_ra_of_asc_node": 80.3994,
        "meta_arg_of_pericenter": 171.7637,
        "meta_mean_anomaly": 188.3878,
        "meta_ephemeris_type": 0,
        "meta_classification_type": "U",
        "meta_norad_cat_id": 36204,
        "meta_element_set_no": 999,
        "meta_rev_at_epoch": 94382,
        "meta_bstar": 0.0020121,
        "meta_mean_motion_dot": 5.645e-05,
        "meta_mean_motion_ddot": 0,
        "tle_line1": "1 36204U 99025DUD 25343.55834509  .00005645  00000+0  20121-2 0  9993",
        "tle_line2": "2 36204  99.2908  80.3994 0020040 171.7637 188.3878 14.34542102943820"
      },
      "geometry": {
        "type": "Point",
        "coordinates": [
          -99.29197866494488,
          -20.74561211081622
        ]
      }
    },
    {
      "type": "Feature",
      "properties": {
        "norad_id": 36206,
        "name": "FENGYUN 1C DEB",
        "group": "fengyun-1c-debris",
        "lat": -16.71306598726379,
        "lon": -172.27739151151573,
        "alt_km": 846.7689115843359,
        "timestamp": "2025-12-13T03:42:11.561003+00:00",
        "meta_object_name": "FENGYUN 1C DEB",
        "meta_object_id": "1999-025DUF",
        "meta_epoch": "2025-12-11T06:51:40.714560",
        "meta_mean_motion": 14.21576119,
        "meta_eccentricity": 0.00304934,
        "meta_inclination": 98.4793,
        "meta_ra_of_asc_node": 8.4949,
        "meta_arg_of_pericenter": 23.5973,
        "meta_mean_anomaly": 336.6597,
        "meta_ephemeris_type": 0,
        "meta_classification_type": "U",
        "meta_norad_cat_id": 36206,
        "meta_element_set_no": 999,
        "meta_rev_at_epoch": 64400,
        "meta_bstar": 0.0010033994,
        "meta_mean_motion_dot": 2.168e-05,
        "meta_mean_motion_ddot": 0,
        "tle_line1": "1 36206U 99025DUF 25345.28588790  .00002168  00000+0  10034-2 0  9994",
        "tle_line2": "2 36206  98.4793   8.4949 0030493  23.5973 336.6597 14.21576119644001"
      },
      "geometry": {
        "type": "Point",
        "coordinates": [
          -172.27739151151573,
          -16.71306598726379
        ]
      }
    },
    {
      "type": "Feature",
      "properties": {
        "norad_id": 36211,
        "name": "FENGYUN 1C DEB",
        "group": "fengyun-1c-debris",
        "lat": -14.02814967789009,
        "lon": -17.549415423249805,
        "alt_km": 896.4591496535159,
        "timestamp": "2025-12-13T03:42:11.561013+00:00",
        "meta_object_name": "FENGYUN 1C DEB",
        "meta_object_id": "1999-025DUL",
        "meta_epoch": "2025-12-12T05:52:45.045984",
        "meta_mean_motion": 14.2599064,
        "meta_eccentricity": 0.02665534,
        "meta_inclination": 98.5055,
        "meta_ra_of_asc_node": 339.424,
        "meta_arg_of_pericenter": 230.3031,
        "meta_mean_anomaly": 127.4375,
        "meta_ephemeris_type": 0,
        "meta_classification_type": "U",
        "meta_norad_cat_id": 36211,
        "meta_element_set_no": 999,
        "meta_rev_at_epoch": 94362,
        "meta_bstar": 0.00079042228,
        "meta_mean_motion_dot": 2.691e-05,
        "meta_mean_motion_ddot": 0,
        "tle_line1": "1 36211U 99025DUL 25346.24496581  .00002691  00000+0  79042-3 0  9999",
        "tle_line2": "2 36211  98.5055 339.4240 0266553 230.3031 127.4375 14.25990640943624"
      },
      "geometry": {
        "type": "Point",
        "coordinates": [
          -17.549415423249805,
          -14.02814967789009
        ]
      }
    },
    {
      "type": "Feature",
      "properties": {
        "norad_id": 36216,
        "name": "FENGYUN 1C DEB",
        "group": "fengyun-1c-debris",
        "lat": -16.661804076100594,
        "lon": 9.948606642764307,
        "alt_km": 806.8307613573388,
        "timestamp": "2025-12-13T03:42:11.561024+00:00",
        "meta_object_name": "FENGYUN 1C DEB",
        "meta_object_id": "1999-025DUR",
        "meta_epoch": "2025-12-09T18:32:38.416704",
        "meta_mean_motion": 14.18849305,
        "meta_eccentricity": 0.00451569,
        "meta_inclination": 98.6092,
        "meta_ra_of_asc_node": 4.0664,
        "meta_arg_of_pericenter": 26.4592,
        "meta_mean_anomaly": 333.8876,
        "meta_ephemeris_type": 0,
        "meta_classification_type": "U",
        "meta_norad_cat_id": 36216,
        "meta_element_set_no": 999,
        "meta_rev_at_epoch": 64330,
        "meta_bstar": 0.00051766748,
        "meta_mean_motion_dot": 1.046e-05,
        "meta_mean_motion_ddot": 0,
        "tle_line1": "1 36216U 99025DUR 25343.77266686  .00001046  00000+0  51767-3 0  9997",
        "tle_line2": "2 36216  98.6092   4.0664 0045156  26.4592 333.8876 14.18849305643300"
      },
      "geometry": {
        "type": "Point",
        "coordinates": [
          9.948606642764307,
          -16.661804076100594
        ]
      }
    },
    {
      "type": "Feature",
      "properties": {
        "norad_id": 36218,
        "name": "FENGYUN 1C DEB",
        "group": "fengyun-1c-debris",
        "lat": -35.30479994337688,
        "lon": -165.29370607846462,
        "alt_km": 619.538088200361,
        "timestamp": "2025-12-13T03:42:11.561034+00:00",
        "meta_object_name": "FENGYUN 1C DEB",
        "meta_object_id": "1999-025DUT",
        "meta_epoch": "2025-12-09T06:48:31.768992",
        "meta_mean_motion": 14.70907849,
        "meta_eccentricity": 0.0073054,
        "meta_inclination": 99.0767,
        "meta_ra_of_asc_node": 183.8976,
        "meta_arg_of_pericenter": 306.3851,
        "meta_mean_anomaly": 53.0628,
        "meta_ephemeris_type": 0,
        "meta_classification_type": "U",
        "meta_norad_cat_id": 36218,
        "meta_element_set_no": 999,
        "meta_rev_at_epoch": 59092,
        "meta_bstar": 0.0015375,
        "meta_mean_motion_dot": 9.758e-05,
        "meta_mean_motion_ddot": 0,
        "tle_line1": "1 36218U 99025DUT 25343.28370103  .00009758  00000+0  15375-2 0  9997",
        "tle_line2": "2 36218  99.0767 183.8976 0073054 306.3851  53.0628 14.70907849590925"
      },
      "geometry": {
        "type": "Point",
        "coordinates": [
          -165.29370607846462,
          -35.30479994337688
        ]
      }
    }
  ]
}